FLOCK 3P-50             
1 42029U 17008CK  17140.93368729  .00001599  00000-0  72292-4 0  9993
2 42029  97.4985 202.3854 0006839 316.5353  43.5343 15.22407463 13568
FLOCK 3P-52             
1 42030U 17008CL  17140.93522259  .00003975  00000-0  17508-3 0  9993
2 42030  97.4982 202.3798 0006798 315.2408  44.8279 15.22397456 14333
FLOCK 3P-46             
1 42031U 17008CM  17140.93223549  .00003924  00000-0  17276-3 0  9990
2 42031  97.4980 202.3817 0006738 316.6536  43.4170 15.22427324 14394
FLOCK 3P-47             
1 42032U 17008CN  17140.93177100  .00001538  00000-0  69636-4 0  9999
2 42032  97.4980 202.3824 0006818 317.2793  42.7913 15.22412820 14217
FLOCK 3P-44             
1 42033U 17008CP  17140.92765712  .00001592  00000-0  71826-4 0  9995
2 42033  97.4982 202.3886 0006752 319.7699  40.3036 15.22470899 12967
FLOCK 3P-64             
1 42034U 17008CQ  17140.92732554  .00005138  00000-0  22493-3 0  9999
2 42034  97.4978 202.3851 0006613 320.0022  40.0726 15.22466250 14383
FLOCK 3P-63             
1 42035U 17008CR  17140.92656884  .00001585  00000-0  71554-4 0  9996
2 42035  97.4977 202.3845 0006702 320.2309  39.8435 15.22461277 12357
FLOCK 3P-62             
1 42036U 17008CS  17140.92384524  .00004377  00000-0  19159-3 0  9990
2 42036  97.4979 202.3897 0006631 321.5941  38.4822 15.22554283 13552
FLOCK 3P-38             
1 42037U 17008CT  17140.92442302  .00001506  00000-0  68075-4 0  9993
2 42037  97.4977 202.3872 0006432 321.7100  38.3678 15.22491266 14338
FLOCK 3P-39             
1 42038U 17008CU  17140.92399120  .00002407  00000-0  10685-3 0  9997
2 42038  97.4974 202.3849 0006632 321.2010  38.8750 15.22523651 14281
FLOCK 3P-15             
1 42039U 17008CV  17140.92499431  .00001421  00000-0  64468-4 0  9998
2 42039  97.4977 202.3868 0006534 320.9051  39.1713 15.22453777 13562
FLOCK 3P-13             
1 42040U 17008CW  17140.92236591  .00001625  00000-0  73137-4 0  9995
2 42040  97.4979 202.3913 0006489 321.7804  38.2971 15.22534667 13554
FLOCK 3P 55             
1 42041U 17008CX  17140.91271201  .00001689  00000-0  75512-4 0  9991
2 42041  97.4978 202.4024 0006342 327.6503  32.4344 15.22701215 14395
FLOCK 3P-56             
1 42042U 17008CY  17140.91378244  .00001657  00000-0  74247-4 0  9996
2 42042  97.4975 202.3963 0006324 325.8306  34.2523 15.22664777 14182
FLOCK 3P-81             
1 42043U 17008CZ  17140.94447236  .00003952  00000-0  17422-3 0  9999
2 42043  97.5003 202.3992 0006692 299.4208  60.6359 15.22373337 13574
FLOCK 3P-87             
1 42044U 17008DA  17140.81968075  .00004206  00000-0  18567-3 0  9999
2 42044  97.4998 202.2562 0006785 295.1454  64.9077 15.22293174 13707
FLOCK 3P-29             
1 42045U 17008DB  17140.75485305  .00005661  00000-0  24898-3 0  9993
2 42045  97.4981 202.1624 0006396 292.2584  67.7973 15.22264943 13548
FLOCK 3P-82             
1 42046U 17008DC  17140.68928129  .00006894  00000-0  30246-3 0  9995
2 42046  97.5000 202.1257 0006961 295.9557  64.0962 15.22265067 13582
FLOCK 3P-78             
1 42047U 17008DD  17140.75348909  .00007714  00000-0  33753-3 0  9994
2 42047  97.5001 202.1938 0006780 295.3798  64.6735 15.22315776 13521
FLOCK 3P-74             
1 42048U 17008DE  17140.75696114  .00005343  00000-0  23551-3 0  9990
2 42048  97.5003 202.1923 0007008 296.0688  63.9826 15.22215732 13522
FLOCK 3P-31             
1 42049U 17008DF  17140.88834715  .00007342  00000-0  32248-3 0  9990
2 42049  97.4982 202.2922 0006535 292.2379  67.8164 15.22204036 13003
FLOCK 3P-83             
1 42050U 17008DG  17140.88760677  .00004379  00000-0  19377-3 0  9992
2 42050  97.5000 202.3202 0006955 295.8409  64.2109 15.22188174 14272
FLOCK 3P-72             
1 42051U 17008DH  17140.94517344  .00004424  00000-0  19420-3 0  9991
2 42051  97.5005 202.4019 0006520 295.1971  64.8589 15.22458513 11878
LEMUR-2-REDFERN-GOES    
1 42059U 98067LA  17140.48263830  .00018701  00000-0  25735-3 0  9999
2 42059  51.6393 175.3260 0007157 190.6157 169.4685 15.57280860 11690
TECHEDSAT 5             
1 42066U 98067LB  17140.89250182  .00161689  00000-0  13926-2 0  9990
2 42066  51.6349 170.5470 0004048  19.8073 340.3080 15.68245314 11522
LEMUR-2-TRUTNA          
1 42067U 98067LC  17140.52717989  .00019312  00000-0  25747-3 0  9994
2 42067  51.6388 174.8734 0006187 189.6772 170.4102 15.58114267 11533
LEMUR-2-AUSTINTACIOUS   
1 42068U 98067LD  17140.48299793  .00017886  00000-0  24563-3 0  9997
2 42068  51.6392 175.3269 0006550 189.7599 170.3267 15.57374210 11626
LEMUR-2-TRUTNAHD        
1 42069U 98067LE  17140.48274679  .00017136  00000-0  23552-3 0  9999
2 42069  51.6396 175.3273 0006447 187.2382 172.8518 15.57389222 11674
1998-067LH              
1 42700U 98067LH  17140.59343891  .00010741  00000-0  16423-3 0  9990
2 42700  51.6319 175.8407 0004845 216.1747 256.1063 15.54960867   656
1998-067LJ              
1 42701U 98067LJ  17140.90574106  .00010383  00000-0  15893-3 0  9993
2 42701  51.6411 174.2586 0005712 222.5000 199.1906 15.54970747   681
1998-067LK              
1 42702U 98067LK  17140.60041863  .00017656  00000-0  26510-3 0  9998
2 42702  51.6423 175.7896 0005351 220.2100 290.6988 15.54964088   565
1998-067LL              
1 42703U 98067LL  17140.90642550  .00016978  00000-0  25608-3 0  9995
2 42703  51.6420 174.2658 0001933 157.5971 265.5694 15.54880344   605
1998-067LM              
1 42704U 98067LM  17140.90659637  .00009946  00000-0  15345-3 0  9994
2 42704  51.6415 174.2718 0001369 121.2583 302.2729 15.54813176   615
1998-067LN              
1 42705U 98067LN  17140.90710962  .00010937  00000-0  16812-3 0  9996
2 42705  51.6429 174.2676 0001692 151.9452 274.1354 15.54796824   675
1998-067LP              
1 42706U 98067LP  17140.90691916  .00009966  00000-0  15294-3 0  9997
2 42706  51.6408 174.2575 0000047 321.9707 103.8607 15.54955077   605
1998-067LQ              
1 42707U 98067LQ  17140.90617434  .00010444  00000-0  16005-3 0  9995
2 42707  51.6405 174.2673 0000589 183.0766 238.2829 15.54935000   596
1998-067LR              
1 42708U 98067LR  17140.60054517  .00010274  00000-0  15774-3 0  9993
2 42708  51.6412 175.7932 0001290 174.5590 334.5602 15.54906482   512
1998-067LS              
1 42711U 98067LS  17140.53823006  .00006770  00000-0  10715-3 0  9992
2 42711  51.6416 176.1146 0002498 144.8663  11.8755 15.54711994   206
1998-067LT              
1 42712U 98067LT  17140.90710448  .00008746  00000-0  13688-3 0  9996
2 42712  51.6419 174.2768 0004809 151.6295 269.8341 15.54594703   500
1998-067LU              
1 42713U 98067LU  17139.44274821  .00007446  00000-0  11701-3 0  9994
2 42713  51.6422 181.5864 0002690 133.5071   6.7929 15.54740925    37
1998-067LV              
1 42714U 98067LV  17140.20474044  .00011144  00000-0  17171-3 0  9997
2 42714  51.6415 177.7778 0002523 132.4803 315.1535 15.54707729   256
1998-067LW              
1 42715U 98067LW  17139.63703428  .00021915  00000-0  33141-3 0  9996
2 42715  51.6369 180.6181 0003084 144.1788   3.1593 15.54616902    60
1998-067LX              
1 42716U 98067LX  17139.48212070  .00011263  00000-0  17294-3 0  9994
2 42716  51.6391 181.3907 0004371 222.6649 137.4003 15.54789357   172
